GLOBALSTAR M063         
1 26081U 00008A   25274.09162269 -.00000092  00000+0 -13262-3 0  9999
2 26081  51.9944 192.6563 0004394 150.7218 312.3882 11.86175149170140
GLOBALSTAR M062         
1 26082U 00008B   25274.41166771 -.00000037  00000+0  43571-3 0  9992
2 26082  51.9829 143.4072 0007143 345.9138 185.3426 12.43472904509833
GLOBALSTAR M060         
1 26083U 00008C   25274.30804185  .00000012  00000+0  10213-2 0  9997
2 26083  51.9995 118.7319 0003251 358.5050 172.3787 12.17667408165296
GLOBALSTAR M064         
1 26084U 00008D   25274.36108920 -.00000028  00000+0  78139-3 0  9998
2 26084  52.0029 289.5261 0001321 263.4059  96.6623 11.88537459179728
GLOBALSTAR M065         
1 31571U 07020A   25274.28385073 -.00000112  00000+0 -44521-4 0  9997
2 31571  51.9887 263.3416 0009940 181.7262 281.2829 12.62009884846809
GLOBALSTAR M069         
1 31573U 07020C   25274.39610036 -.00000019  00000+0  68322-3 0  9990
2 31573  52.0020 264.6028 0001886 344.6834 167.1116 12.23461543847129
GLOBALSTAR M072         
1 31574U 07020D   25274.14236928 -.00000077  00000+0  93743-4 0  9998
2 31574  51.9929  69.8886 0001588 139.7882  32.1460 11.91652068844092
GLOBALSTAR M071         
1 31576U 07020F   25274.48047469  .00000008  00000+0  98255-3 0  9992
2 31576  52.0060 292.9814 0000759 334.9055 172.9610 12.18258845507891
